{"type": "FeatureCollection", "features": [ {"type": "Feature", "properties": {"norad_id": 33799, "name": "COSMOS 2251 DEB", "group": "cosmos-2251-debris", "lat": -44.94845645100607, "lon": 66.31980445827658, "alt_km": 652.420647812357, "timestamp": "2025-12-12T03:50:52.810955+00:00", "meta": {"OBJECT_NAME": "COSMOS 2251 DEB", "OBJECT_ID": "1993-036AQ", "EPOCH": "2025-12-11T15:22:42.254976", "MEAN_MOTION": 14.79560131, "ECCENTRICITY": 0.00235085, "INCLINATION": 74.0315, "RA_OF_ASC_NODE": 83.9507, "ARG_OF_PERICENTER": 155.017, "MEAN_ANOMALY": 271.3919, "EPHEMERIS_TYPE": 0, "CLASSIFICATION_TYPE": "U", "NORAD_CAT_ID": 33799, "ELEMENT_SET_NO": 999, "REV_AT_EPOCH": 88795, "BSTAR": 0.0018895128, "MEAN_MOTION_DOT": 0.00014209, "MEAN_MOTION_DDOT": 0}, "tle": {"line1": "1 33799U 93036AQ  25345.64076684  .00014209  00000+0  18895-2 0  9990", "line2": "2 33799  74.0315  83.9507 0023508 155.0170 271.3919 14.79560131887958"}}, "geometry": {"type": "Point", "coordinates": [66.31980445827658, -44.94845645100607]}}, {"type": "Feature", "properties": {"norad_id": 33805, "name": "COSMOS 2251 DEB", "group": "cosmos-2251-debris", "lat": 45.12122357705394, "lon": 115.72109587133583, "alt_km": 653.7701052231978, "timestamp": "2025-12-12T03:50:52.810965+00:00", "meta": {"OBJECT_NAME": "COSMOS 2251 DEB", "OBJECT_ID": "1993-036AW", "EPOCH": "2025-12-11T07:28:51.005280", "MEAN_MOTION": 14.57851284, "ECCENTRICITY": 0.00602561, "INCLINATION": 74.0306, "RA_OF_ASC_NODE": 314.0474, "ARG_OF_PERICENTER": 143.4484, "MEAN_ANOMALY": 217.0816, "EPHEMERIS_TYPE": 0, "CLASSIFICATION_TYPE": "U", "NORAD_CAT_ID": 33805, "ELEMENT_SET_NO": 999, "REV_AT_EPOCH": 89206, "BSTAR": 0.00040023686, "MEAN_MOTION_DOT": 1.849e-05, "MEAN_MOTION_DDOT": 0}, "tle": {"line1": "1 33805U 93036AW  25345.31170145  .00001849  00000+0  40024-3 0  9995", "line2": "2 33805  74.0306 314.0474 0060256 143.4484 217.0816 14.57851284892066"}}, "geometry": {"type": "Point", "coordinates": [115.72109587133583, 45.12122357705394]}}, {"type": "Feature", "properties": {"norad_id": 33811, "name": "COSMOS 2251 DEB", "group": "cosmos-2251-debris", "lat": -71.82621409144454, "lon": -174.08470190505548, "alt_km": 569.1640072545051, "timestamp": "2025-12-12T03:50:52.810976+00:00", "meta": {"OBJECT_NAME": "COSMOS 2251 DEB", "OBJECT_ID": "1993-036BC", "EPOCH": "2025-12-11T14:26:50.079264", "MEAN_MOTION": 15.05212469, "ECCENTRICITY": 0.00306375, "INCLINATION": 73.8382, "RA_OF_ASC_NODE": 305.0158, "ARG_OF_PERICENTER": 25.695, "MEAN_ANOMALY": 91.7777, "EPHEMERIS_TYPE": 0, "CLASSIFICATION_TYPE": "U", "NORAD_CAT_ID": 33811, "ELEMENT_SET_NO": 999, "REV_AT_EPOCH": 90001, "BSTAR": 0.0016988043, "MEAN_MOTION_DOT": 0.00024547, "MEAN_MOTION_DDOT": 0}, "tle": {"line1": "1 33811U 93036BC  25345.60196851  .00024547  00000+0  16988-2 0  9997", "line2": "2 33811  73.8382 305.0158 0030637  25.6950  91.7777 15.05212469900010"}}, "geometry": {"type": "Point", "coordinates": [-174.08470190505548, -71.82621409144454]}}, {"type": "Feature", "properties": {"norad_id": 33815, "name": "COSMOS 2251 DEB", "group": "cosmos-2251-debris", "lat": -53.9428707001211, "lon": 154.51543754205804, "alt_km": 519.295817895214, "timestamp": "2025-12-12T03:50:52.810986+00:00", "meta": {"OBJECT_NAME": "COSMOS 2251 DEB", "OBJECT_ID": "1993-036BG", "EPOCH": "2025-12-10T00:34:36.803712", "MEAN_MOTION": 15.1696459, "ECCENTRICITY": 0.00027751, "INCLINATION": 73.9523, "RA_OF_ASC_NODE": 182.2836, "ARG_OF_PERICENTER": 231.9732, "MEAN_ANOMALY": 286.9539, "EPHEMERIS_TYPE": 0, "CLASSIFICATION_TYPE": "U", "NORAD_CAT_ID": 33815, "ELEMENT_SET_NO": 999, "REV_AT_EPOCH": 88329, "BSTAR": 0.0073023687, "MEAN_MOTION_DOT": 0.00147157, "MEAN_MOTION_DDOT": 0}, "tle": {"line1": "1 33815U 93036BG  25344.02403708  .00147157  00000+0  73024-2 0  9995", "line2": "2 33815  73.9523 182.2836 0002775 231.9732 286.9539 15.16964590883297"}}, "geometry": {"type": "Point", "coordinates": [154.51543754205804, -53.9428707001211]}}, {"type": "Feature", "properties": {"norad_id": 33816, "name": "COSMOS 2251 DEB", "group": "cosmos-2251-debris", "lat": 73.66363131117579, "lon": -173.33111426779337, "alt_km": 784.2770278585995, "timestamp": "2025-12-12T03:50:52.810997+00:00", "meta": {"OBJECT_NAME": "COSMOS 2251 DEB", "OBJECT_ID": "1993-036BH", "EPOCH": "2025-12-11T11:47:39.911424", "MEAN_MOTION": 13.81781196, "ECCENTRICITY": 0.02647437, "INCLINATION": 73.8948, "RA_OF_ASC_NODE": 107.5116, "ARG_OF_PERICENTER": 120.6874, "MEAN_ANOMALY": 242.0628, "EPHEMERIS_TYPE": 0, "CLASSIFICATION_TYPE": "U", "NORAD_CAT_ID": 33816, "ELEMENT_SET_NO": 999, "REV_AT_EPOCH": 84656, "BSTAR": 0.00078196, "MEAN_MOTION_DOT": 1.071e-05, "MEAN_MOTION_DDOT": 0}, "tle": {"line1": "1 33816U 93036BH  25345.49143416  .00001071  00000+0  78196-3 0  9995", "line2": "2 33816  73.8948 107.5116 0264743 120.6874 242.0628 13.81781196846565"}}, "geometry": {"type": "Point", "coordinates": [-173.33111426779337, 73.66363131117579]}}, {"type": "Feature", "properties": {"norad_id": 33818, "name": "COSMOS 2251 DEB", "group": "cosmos-2251-debris", "lat": -22.346931988607153, "lon": -5.819867386527057, "alt_km": 520.911460994249, "timestamp": "2025-12-12T03:50:52.811008+00:00", "meta": {"OBJECT_NAME": "COSMOS 2251 DEB", "OBJECT_ID": "1993-036BK", "EPOCH": "2025-12-10T23:04:43.713984", "MEAN_MOTION": 15.12257187, "ECCENTRICITY": 0.0027544, "INCLINATION": 74.0759, "RA_OF_ASC_NODE": 169.9158, "ARG_OF_PERICENTER": 159.4021, "MEAN_ANOMALY": 0.1181, "EPHEMERIS_TYPE": 0, "CLASSIFICATION_TYPE": "U", "NORAD_CAT_ID": 33818, "ELEMENT_SET_NO": 999, "REV_AT_EPOCH": 89835, "BSTAR": 0.0031578, "MEAN_MOTION_DOT": 0.00055504, "MEAN_MOTION_DDOT": 0}, "tle": {"line1": "1 33818U 93036BK  25344.96161706  .00055504  00000+0  31578-2 0  9992", "line2": "2 33818  74.0759 169.9158 0027544 159.4021   0.1181 15.12257187898353"}}, "geometry": {"type": "Point", "coordinates": [-5.819867386527057, -22.346931988607153]}}, {"type": "Feature", "properties": {"norad_id": 33819, "name": "COSMOS 2251 DEB", "group": "cosmos-2251-debris", "lat": 42.501024876598585, "lon": 15.833683122040183, "alt_km": 750.9769301532897, "timestamp": "2025-12-12T03:50:52.811018+00:00", "meta": {"OBJECT_NAME": "COSMOS 2251 DEB", "OBJECT_ID": "1993-036BL", "EPOCH": "2025-12-11T15:38:00.500352", "MEAN_MOTION": 14.32216319, "ECCENTRICITY": 0.00890647, "INCLINATION": 74.1789, "RA_OF_ASC_NODE": 211.8143, "ARG_OF_PERICENTER": 73.4724, "MEAN_ANOMALY": 317.9213, "EPHEMERIS_TYPE": 0, "CLASSIFICATION_TYPE": "U", "NORAD_CAT_ID": 33819, "ELEMENT_SET_NO": 999, "REV_AT_EPOCH": 87480, "BSTAR": 0.00093001561, "MEAN_MOTION_DOT": 2.595e-05, "MEAN_MOTION_DDOT": 0}, "tle": {"line1": "1 33819U 93036BL  25345.65139468  .00002595  00000+0  93002-3 0  9993", "line2": "2 33819  74.1789 211.8143 0089064  73.4724 317.9213 14.32216319874801"}}, "geometry": {"type": "Point", "coordinates": [15.833683122040183, 42.501024876598585]}}, {"type": "Feature", "properties": {"norad_id": 33821, "name": "COSMOS 2251 DEB", "group": "cosmos-2251-debris", "lat": -20.984948652207844, "lon": 137.7562701272511, "alt_km": 528.6695820449268, "timestamp": "2025-12-12T03:50:52.811029+00:00", "meta": {"OBJECT_NAME": "COSMOS 2251 DEB", "OBJECT_ID": "1993-036BN", "EPOCH": "2025-12-11T12:12:08.834976", "MEAN_MOTION": 15.25199649, "ECCENTRICITY": 0.00521939, "INCLINATION": 74.0302, "RA_OF_ASC_NODE": 145.4399, "ARG_OF_PERICENTER": 179.4057, "MEAN_ANOMALY": 180.7216, "EPHEMERIS_TYPE": 0, "CLASSIFICATION_TYPE": "U", "NORAD_CAT_ID": 33821, "ELEMENT_SET_NO": 999, "REV_AT_EPOCH": 74982, "BSTAR": 0.0021833345, "MEAN_MOTION_DOT": 0.00057397, "MEAN_MOTION_DDOT": 0}, "tle": {"line1": "1 33821U 93036BN  25345.50843559  .00057397  00000+0  21833-2 0  9995", "line2": "2 33821  74.0302 145.4399 0052193 179.4057 180.7216 15.25199649749829"}}, "geometry": {"type": "Point", "coordinates": [137.7562701272511, -20.984948652207844]}}, {"type": "Feature", "properties": {"norad_id": 33822, "name": "COSMOS 2251 DEB", "group": "cosmos-2251-debris", "lat": 2.3062264814524878, "lon": -164.63563838407404, "alt_km": 907.5995051983573, "timestamp": "2025-12-12T03:50:52.811039+00:00", "meta": {"OBJECT_NAME": "COSMOS 2251 DEB", "OBJECT_ID": "1993-036BP", "EPOCH": "2025-12-11T14:23:54.485952", "MEAN_MOTION": 14.13060637, "ECCENTRICITY": 0.01534034, "INCLINATION": 74.0694, "RA_OF_ASC_NODE": 195.6942, "ARG_OF_PERICENTER": 242.2973, "MEAN_ANOMALY": 149.074, "EPHEMERIS_TYPE": 0, "CLASSIFICATION_TYPE": "U", "NORAD_CAT_ID": 33822, "ELEMENT_SET_NO": 999, "REV_AT_EPOCH": 86038, "BSTAR": 0.0017691934, "MEAN_MOTION_DOT": 3.67e-05, "MEAN_MOTION_DDOT": 0}, "tle": {"line1": "1 33822U 93036BP  25345.59993618  .00003670  00000+0  17692-2 0  9990", "line2": "2 33822  74.0694 195.6942 0153403 242.2973 149.0740 14.13060637860382"}}, "geometry": {"type": "Point", "coordinates": [-164.63563838407404, 2.3062264814524878]}}, {"type": "Feature", "properties": {"norad_id": 33823, "name": "COSMOS 2251 DEB", "group": "cosmos-2251-debris", "lat": -29.12329227493608, "lon": -20.33888156726451, "alt_km": 836.5394572480291, "timestamp": "2025-12-12T03:50:52.811050+00:00", "meta": {"OBJECT_NAME": "COSMOS 2251 DEB", "OBJECT_ID": "1993-036BQ", "EPOCH": "2025-12-11T11:28:18.909696", "MEAN_MOTION": 13.98945521, "ECCENTRICITY": 0.02092961, "INCLINATION": 73.8095, "RA_OF_ASC_NODE": 151.5416, "ARG_OF_PERICENTER": 276.9052, "MEAN_ANOMALY": 100.5297, "EPHEMERIS_TYPE": 0, "CLASSIFICATION_TYPE": "U", "NORAD_CAT_ID": 33823, "ELEMENT_SET_NO": 999, "REV_AT_EPOCH": 85592, "BSTAR": 0.0011819619, "MEAN_MOTION_DOT": 2.032e-05, "MEAN_MOTION_DDOT": 0}, "tle": {"line1": "1 33823U 93036BQ  25345.47799664  .00002032  00000+0  11820-2 0  9991", "line2": "2 33823  73.8095 151.5416 0209296 276.9052 100.5297 13.98945521855925"}}, "geometry": {"type": "Point", "coordinates": [-20.33888156726451, -29.12329227493608]}}]}